{
  "type": "FeatureCollection",
  "features": [
    {
      "type": "Feature",
      "properties": {
        "norad_id": 34613,
        "name": "COSMOS 2251 DEB",
        "group": "cosmos-2251-debris",
        "lat": -18.427138816434447,
        "lon": -72.42397636302266,
        "alt_km": 874.0147367027548,
        "timestamp": "2025-12-04T17:48:40.559654+00:00",
        "meta_object_name": "COSMOS 2251 DEB",
        "meta_object_id": "1993-036WJ",
        "meta_epoch": "2025-12-03T15:46:37.606944",
        "meta_mean_motion": 14.26344631,
        "meta_eccentricity": 0.01101422,
        "meta_inclination": 73.9632,
        "meta_ra_of_asc_node": 295.0439,
        "meta_arg_of_pericenter": 129.2472,
        "meta_mean_anomaly": 44.5087,
        "meta_ephemeris_type": 0,
        "meta_classification_type": "U",
        "meta_norad_cat_id": 34613,
        "meta_element_set_no": 999,
        "meta_rev_at_epoch": 86333,
        "meta_bstar": 0.0016694425,
        "meta_mean_motion_dot": 4.253e-05,
        "meta_mean_motion_ddot": 0,
        "tle_line1": "1 34613U 93036WJ  25337.65737971  .00004253  00000+0  16694-2 0  9994",
        "tle_line2": "2 34613  73.9632 295.0439 0110142 129.2472  44.5087 14.26344631863332"
      },
      "geometry": {
        "type": "Point",
        "coordinates": [
          -72.42397636302266,
          -18.427138816434447
        ]
      }
    },
    {
      "type": "Feature",
      "properties": {
        "norad_id": 34614,
        "name": "COSMOS 2251 DEB",
        "group": "cosmos-2251-debris",
        "lat": 21.607398744613743,
        "lon": 171.6984629741988,
        "alt_km": 970.3828670892672,
        "timestamp": "2025-12-04T17:48:40.559665+00:00",
        "meta_object_name": "COSMOS 2251 DEB",
        "meta_object_id": "1993-036WK",
        "meta_epoch": "2025-12-02T21:17:05.186112",
        "meta_mean_motion": 14.17081301,
        "meta_eccentricity": 0.01965888,
        "meta_inclination": 73.8803,
        "meta_ra_of_asc_node": 1.6106,
        "meta_arg_of_pericenter": 357.259,
        "meta_mean_anomaly": 58.3338,
        "meta_ephemeris_type": 0,
        "meta_classification_type": "U",
        "meta_norad_cat_id": 34614,
        "meta_element_set_no": 999,
        "meta_rev_at_epoch": 84627,
        "meta_bstar": 0.0059272273,
        "meta_mean_motion_dot": 0.00014422,
        "meta_mean_motion_ddot": 0,
        "tle_line1": "1 34614U 93036WK  25336.88686558  .00014422  00000+0  59272-2 0  9991",
        "tle_line2": "2 34614  73.8803   1.6106 0196588 357.2590  58.3338 14.17081301846274"
      },
      "geometry": {
        "type": "Point",
        "coordinates": [
          171.6984629741988,
          21.607398744613743
        ]
      }
    },
    {
      "type": "Feature",
      "properties": {
        "norad_id": 34615,
        "name": "COSMOS 2251 DEB",
        "group": "cosmos-2251-debris",
        "lat": 57.096771112800255,
        "lon": 100.65732150411708,
        "alt_km": 1081.7223084139341,
        "timestamp": "2025-12-04T17:48:40.559675+00:00",
        "meta_object_name": "COSMOS 2251 DEB",
        "meta_object_id": "1993-036WL",
        "meta_epoch": "2025-12-01T17:17:48.208704",
        "meta_mean_motion": 13.52196517,
        "meta_eccentricity": 0.04023715,
        "meta_inclination": 74.0055,
        "meta_ra_of_asc_node": 311.8151,
        "meta_arg_of_pericenter": 221.3257,
        "meta_mean_anomaly": 319.7339,
        "meta_ephemeris_type": 0,
        "meta_classification_type": "U",
        "meta_norad_cat_id": 34615,
        "meta_element_set_no": 999,
        "meta_rev_at_epoch": 82666,
        "meta_bstar": 4.7217708e-05,
        "meta_mean_motion_dot": 2.9e-07,
        "meta_mean_motion_ddot": 0,
        "tle_line1": "1 34615U 93036WL  25335.72069686  .00000029  00000+0  47218-4 0  9998",
        "tle_line2": "2 34615  74.0055 311.8151 0402371 221.3257 319.7339 13.52196517826664"
      },
      "geometry": {
        "type": "Point",
        "coordinates": [
          100.65732150411708,
          57.096771112800255
        ]
      }
    },
    {
      "type": "Feature",
      "properties": {
        "norad_id": 34619,
        "name": "COSMOS 2251 DEB",
        "group": "cosmos-2251-debris",
        "lat": 37.07207488284619,
        "lon": -132.20921162115053,
        "alt_km": 671.1038736205119,
        "timestamp": "2025-12-04T17:48:40.559685+00:00",
        "meta_object_name": "COSMOS 2251 DEB",
        "meta_object_id": "1993-036WQ",
        "meta_epoch": "2025-12-04T01:14:33.297792",
        "meta_mean_motion": 14.6461029,
        "meta_eccentricity": 0.00945638,
        "meta_inclination": 74.0443,
        "meta_ra_of_asc_node": 216.6335,
        "meta_arg_of_pericenter": 313.5003,
        "meta_mean_anomaly": 45.8331,
        "meta_ephemeris_type": 0,
        "meta_classification_type": "U",
        "meta_norad_cat_id": 34619,
        "meta_element_set_no": 999,
        "meta_rev_at_epoch": 89171,
        "meta_bstar": 0.00041815469,
        "meta_mean_motion_dot": 2.338e-05,
        "meta_mean_motion_ddot": 0,
        "tle_line1": "1 34619U 93036WQ  25338.05177428  .00002338  00000+0  41815-3 0  9996",
        "tle_line2": "2 34619  74.0443 216.6335 0094563 313.5003  45.8331 14.64610290891718"
      },
      "geometry": {
        "type": "Point",
        "coordinates": [
          -132.20921162115053,
          37.07207488284619
        ]
      }
    },
    {
      "type": "Feature",
      "properties": {
        "norad_id": 34620,
        "name": "COSMOS 2251 DEB",
        "group": "cosmos-2251-debris",
        "lat": 5.8726814052400025,
        "lon": -123.80082255562995,
        "alt_km": 734.2843476884173,
        "timestamp": "2025-12-04T17:48:40.559695+00:00",
        "meta_object_name": "COSMOS 2251 DEB",
        "meta_object_id": "1993-036WR",
        "meta_epoch": "2025-12-03T03:40:05.521152",
        "meta_mean_motion": 14.48819497,
        "meta_eccentricity": 0.0081909,
        "meta_inclination": 74.0521,
        "meta_ra_of_asc_node": 237.4888,
        "meta_arg_of_pericenter": 276.0951,
        "meta_mean_anomaly": 83.0881,
        "meta_ephemeris_type": 0,
        "meta_classification_type": "U",
        "meta_norad_cat_id": 34620,
        "meta_element_set_no": 999,
        "meta_rev_at_epoch": 86688,
        "meta_bstar": 0.003290247,
        "meta_mean_motion_dot": 0.00012967,
        "meta_mean_motion_ddot": 0,
        "tle_line1": "1 34620U 93036WR  25337.15284168  .00012967  00000+0  32902-2 0  9993",
        "tle_line2": "2 34620  74.0521 237.4888 0081909 276.0951  83.0881 14.48819497866882"
      },
      "geometry": {
        "type": "Point",
        "coordinates": [
          -123.80082255562995,
          5.8726814052400025
        ]
      }
    },
    {
      "type": "Feature",
      "properties": {
        "norad_id": 34622,
        "name": "COSMOS 2251 DEB",
        "group": "cosmos-2251-debris",
        "lat": 55.48435250701818,
        "lon": -14.050079257544425,
        "alt_km": 740.0561172714806,
        "timestamp": "2025-12-04T17:48:40.559705+00:00",
        "meta_object_name": "COSMOS 2251 DEB",
        "meta_object_id": "1993-036WT",
        "meta_epoch": "2025-12-04T05:48:27.270720",
        "meta_mean_motion": 14.21987389,
        "meta_eccentricity": 0.01040146,
        "meta_inclination": 74.0416,
        "meta_ra_of_asc_node": 322.2585,
        "meta_arg_of_pericenter": 46.8451,
        "meta_mean_anomaly": 332.5729,
        "meta_ephemeris_type": 0,
        "meta_classification_type": "U",
        "meta_norad_cat_id": 34622,
        "meta_element_set_no": 999,
        "meta_rev_at_epoch": 86339,
        "meta_bstar": 0.0018961245,
        "meta_mean_motion_dot": 4.403e-05,
        "meta_mean_motion_ddot": 0,
        "tle_line1": "1 34622U 93036WT  25338.24198230  .00004403  00000+0  18961-2 0  9995",
        "tle_line2": "2 34622  74.0416 322.2585 0104014  46.8451 332.5729 14.21987389863398"
      },
      "geometry": {
        "type": "Point",
        "coordinates": [
          -14.050079257544425,
          55.48435250701818
        ]
      }
    },
    {
      "type": "Feature",
      "properties": {
        "norad_id": 34626,
        "name": "COSMOS 2251 DEB",
        "group": "cosmos-2251-debris",
        "lat": -58.403432792356945,
        "lon": -172.84616148225405,
        "alt_km": 679.5810791350132,
        "timestamp": "2025-12-04T17:48:40.559716+00:00",
        "meta_object_name": "COSMOS 2251 DEB",
        "meta_object_id": "1993-036WX",
        "meta_epoch": "2025-12-03T10:25:41.739168",
        "meta_mean_motion": 14.72014634,
        "meta_eccentricity": 0.00261929,
        "meta_inclination": 74.048,
        "meta_ra_of_asc_node": 341.9842,
        "meta_arg_of_pericenter": 73.1994,
        "meta_mean_anomaly": 82.4621,
        "meta_ephemeris_type": 0,
        "meta_classification_type": "U",
        "meta_norad_cat_id": 34626,
        "meta_element_set_no": 999,
        "meta_rev_at_epoch": 89007,
        "meta_bstar": 0.0012403674,
        "meta_mean_motion_dot": 7.808e-05,
        "meta_mean_motion_ddot": 0,
        "tle_line1": "1 34626U 93036WX  25337.43451087  .00007808  00000+0  12404-2 0  9999",
        "tle_line2": "2 34626  74.0480 341.9842 0026192  73.1994  82.4621 14.72014634890079"
      },
      "geometry": {
        "type": "Point",
        "coordinates": [
          -172.84616148225405,
          -58.403432792356945
        ]
      }
    }
  ]
}